{"type": "FeatureCollection", "features": [ {"type": "Feature", "properties": {"norad_id": 33939, "name": "COSMOS 2251 DEB", "group": "cosmos-2251-debris", "lat": 33.647430645451884, "lon": 66.00631564915066, "alt_km": 558.9741578327976, "timestamp": "2025-12-25T07:41:10.116477+00:00", "meta": {"OBJECT_NAME": "COSMOS 2251 DEB", "OBJECT_ID": "1993-036EU", "EPOCH": "2025-12-24T12:19:51.320352", "MEAN_MOTION": 15.00680764, "ECCENTRICITY": 0.00049376, "INCLINATION": 74.0056, "RA_OF_ASC_NODE": 56.6432, "ARG_OF_PERICENTER": 16.2859, "MEAN_ANOMALY": 343.8486, "EPHEMERIS_TYPE": 0, "CLASSIFICATION_TYPE": "U", "NORAD_CAT_ID": 33939, "ELEMENT_SET_NO": 999, "REV_AT_EPOCH": 88929, "BSTAR": 0.0029907865, "MEAN_MOTION_DOT": 0.00038049, "MEAN_MOTION_DDOT": 0}, "tle": {"line1": "1 33939U 93036EU  25358.51378843  .00038049  00000+0  29908-2 0  9993", "line2": "2 33939  74.0056  56.6432 0004937  16.2859 343.8486 15.00680764889290"}}, "geometry": {"type": "Point", "coordinates": [66.00631564915066, 33.647430645451884]}}, {"type": "Feature", "properties": {"norad_id": 33940, "name": "COSMOS 2251 DEB", "group": "cosmos-2251-debris", "lat": 74.00964516864322, "lon": -153.42586411182597, "alt_km": 691.9769782772701, "timestamp": "2025-12-25T07:41:10.116487+00:00", "meta": {"OBJECT_NAME": "COSMOS 2251 DEB", "OBJECT_ID": "1993-036EV", "EPOCH": "2025-12-24T18:48:36.483840", "MEAN_MOTION": 14.58907475, "ECCENTRICITY": 0.00107123, "INCLINATION": 74.04, "RA_OF_ASC_NODE": 120.5632, "ARG_OF_PERICENTER": 201.3982, "MEAN_ANOMALY": 311.3169, "EPHEMERIS_TYPE": 0, "CLASSIFICATION_TYPE": "U", "NORAD_CAT_ID": 33940, "ELEMENT_SET_NO": 999, "REV_AT_EPOCH": 88769, "BSTAR": 0.0011497519, "MEAN_MOTION_DOT": 5.367e-05, "MEAN_MOTION_DDOT": 0}, "tle": {"line1": "1 33940U 93036EV  25358.78375560  .00005367  00000+0  11498-2 0  9999", "line2": "2 33940  74.0400 120.5632 0010712 201.3982 311.3169 14.58907475887693"}}, "geometry": {"type": "Point", "coordinates": [-153.42586411182597, 74.00964516864322]}}, {"type": "Feature", "properties": {"norad_id": 33942, "name": "COSMOS 2251 DEB", "group": "cosmos-2251-debris", "lat": 59.03142986963937, "lon": -79.85082943207298, "alt_km": 759.1237566119253, "timestamp": "2025-12-25T07:41:10.116497+00:00", "meta": {"OBJECT_NAME": "COSMOS 2251 DEB", "OBJECT_ID": "1993-036EX", "EPOCH": "2025-12-24T21:44:32.801280", "MEAN_MOTION": 14.38004521, "ECCENTRICITY": 0.00208057, "INCLINATION": 74.0362, "RA_OF_ASC_NODE": 252.4231, "ARG_OF_PERICENTER": 333.5565, "MEAN_ANOMALY": 105.3652, "EPHEMERIS_TYPE": 0, "CLASSIFICATION_TYPE": "U", "NORAD_CAT_ID": 33942, "ELEMENT_SET_NO": 999, "REV_AT_EPOCH": 88309, "BSTAR": 0.00019381506, "MEAN_MOTION_DOT": 5.61e-06, "MEAN_MOTION_DDOT": 0}, "tle": {"line1": "1 33942U 93036EX  25358.90593520  .00000561  00000+0  19382-3 0  9995", "line2": "2 33942  74.0362 252.4231 0020805 333.5565 105.3652 14.38004521883097"}}, "geometry": {"type": "Point", "coordinates": [-79.85082943207298, 59.03142986963937]}}, {"type": "Feature", "properties": {"norad_id": 33944, "name": "COSMOS 2251 DEB", "group": "cosmos-2251-debris", "lat": -73.7999826017323, "lon": -174.16392177667288, "alt_km": 807.3933873654523, "timestamp": "2025-12-25T07:41:10.116507+00:00", "meta": {"OBJECT_NAME": "COSMOS 2251 DEB", "OBJECT_ID": "1993-036EZ", "EPOCH": "2025-12-24T22:24:26.018208", "MEAN_MOTION": 14.37370487, "ECCENTRICITY": 0.01127236, "INCLINATION": 74.0407, "RA_OF_ASC_NODE": 286.4918, "ARG_OF_PERICENTER": 22.9901, "MEAN_ANOMALY": 45.6367, "EPHEMERIS_TYPE": 0, "CLASSIFICATION_TYPE": "U", "NORAD_CAT_ID": 33944, "ELEMENT_SET_NO": 999, "REV_AT_EPOCH": 88203, "BSTAR": 0.00037222834, "MEAN_MOTION_DOT": 1.169e-05, "MEAN_MOTION_DDOT": 0}, "tle": {"line1": "1 33944U 93036EZ  25358.93363447  .00001169  00000+0  37223-3 0  9992", "line2": "2 33944  74.0407 286.4918 0112723  22.9901  45.6367 14.37370487882030"}}, "geometry": {"type": "Point", "coordinates": [-174.16392177667288, -73.7999826017323]}}, {"type": "Feature", "properties": {"norad_id": 33945, "name": "COSMOS 2251 DEB", "group": "cosmos-2251-debris", "lat": -59.380265251960715, "lon": -105.71973943688572, "alt_km": 777.5399688822017, "timestamp": "2025-12-25T07:41:10.116517+00:00", "meta": {"OBJECT_NAME": "COSMOS 2251 DEB", "OBJECT_ID": "1993-036FA", "EPOCH": "2025-12-24T20:15:56.095200", "MEAN_MOTION": 14.34610022, "ECCENTRICITY": 0.00224325, "INCLINATION": 74.0303, "RA_OF_ASC_NODE": 284.0873, "ARG_OF_PERICENTER": 7.2339, "MEAN_ANOMALY": 352.9132, "EPHEMERIS_TYPE": 0, "CLASSIFICATION_TYPE": "U", "NORAD_CAT_ID": 33945, "ELEMENT_SET_NO": 999, "REV_AT_EPOCH": 88189, "BSTAR": 0.00013316246, "MEAN_MOTION_DOT": 3.51e-06, "MEAN_MOTION_DDOT": 0}, "tle": {"line1": "1 33945U 93036FA  25358.84439925  .00000351  00000+0  13316-3 0  9997", "line2": "2 33945  74.0303 284.0873 0022432   7.2339 352.9132 14.34610022881894"}}, "geometry": {"type": "Point", "coordinates": [-105.71973943688572, -59.380265251960715]}}, {"type": "Feature", "properties": {"norad_id": 33948, "name": "COSMOS 2251 DEB", "group": "cosmos-2251-debris", "lat": -11.900147066643976, "lon": 105.51050321291243, "alt_km": 792.8274986778333, "timestamp": "2025-12-25T07:41:10.116527+00:00", "meta": {"OBJECT_NAME": "COSMOS 2251 DEB", "OBJECT_ID": "1993-036FD", "EPOCH": "2025-12-24T20:45:31.089024", "MEAN_MOTION": 14.356431, "ECCENTRICITY": 0.00232606, "INCLINATION": 74.0361, "RA_OF_ASC_NODE": 282.8872, "ARG_OF_PERICENTER": 355.8742, "MEAN_ANOMALY": 4.2215, "EPHEMERIS_TYPE": 0, "CLASSIFICATION_TYPE": "U", "NORAD_CAT_ID": 33948, "ELEMENT_SET_NO": 999, "REV_AT_EPOCH": 88197, "BSTAR": 0.00019667173, "MEAN_MOTION_DOT": 5.43e-06, "MEAN_MOTION_DDOT": 0}, "tle": {"line1": "1 33948U 93036FD  25358.86494316  .00000543  00000+0  19667-3 0  9995", "line2": "2 33948  74.0361 282.8872 0023260 355.8742   4.2215 14.35643100881978"}}, "geometry": {"type": "Point", "coordinates": [105.51050321291243, -11.900147066643976]}}, {"type": "Feature", "properties": {"norad_id": 33971, "name": "COSMOS 2251 DEB", "group": "cosmos-2251-debris", "lat": 73.50745395409182, "lon": -54.141307641212876, "alt_km": 758.087886839674, "timestamp": "2025-12-25T07:41:10.116537+00:00", "meta": {"OBJECT_NAME": "COSMOS 2251 DEB", "OBJECT_ID": "1993-036FE", "EPOCH": "2025-12-24T18:15:11.647872", "MEAN_MOTION": 14.39744705, "ECCENTRICITY": 0.00189964, "INCLINATION": 74.0239, "RA_OF_ASC_NODE": 231.5172, "ARG_OF_PERICENTER": 330.052, "MEAN_ANOMALY": 95.8262, "EPHEMERIS_TYPE": 0, "CLASSIFICATION_TYPE": "U", "NORAD_CAT_ID": 33971, "ELEMENT_SET_NO": 999, "REV_AT_EPOCH": 88312, "BSTAR": 0.00022784523, "MEAN_MOTION_DOT": 6.89e-06, "MEAN_MOTION_DDOT": 0}, "tle": {"line1": "1 33971U 93036FE  25358.76055148  .00000689  00000+0  22785-3 0  9992", "line2": "2 33971  74.0239 231.5172 0018996 330.0520  95.8262 14.39744705883125"}}, "geometry": {"type": "Point", "coordinates": [-54.141307641212876, 73.50745395409182]}}, {"type": "Feature", "properties": {"norad_id": 33972, "name": "COSMOS 2251 DEB", "group": "cosmos-2251-debris", "lat": -43.33077920604493, "lon": 3.2077962763183714, "alt_km": 801.7377311006976, "timestamp": "2025-12-25T07:41:10.116548+00:00", "meta": {"OBJECT_NAME": "COSMOS 2251 DEB", "OBJECT_ID": "1993-036FF", "EPOCH": "2025-12-22T11:54:25.691616", "MEAN_MOTION": 14.36292058, "ECCENTRICITY": 0.01238157, "INCLINATION": 73.9934, "RA_OF_ASC_NODE": 172.696, "ARG_OF_PERICENTER": 338.2339, "MEAN_ANOMALY": 51.7728, "EPHEMERIS_TYPE": 0, "CLASSIFICATION_TYPE": "U", "NORAD_CAT_ID": 33972, "ELEMENT_SET_NO": 999, "REV_AT_EPOCH": 87214, "BSTAR": 0.0012268858, "MEAN_MOTION_DOT": 3.888e-05, "MEAN_MOTION_DDOT": 0}, "tle": {"line1": "1 33972U 93036FF  25356.49613069  .00003888  00000+0  12269-2 0  9992", "line2": "2 33972  73.9934 172.6960 0123815 338.2339  51.7728 14.36292058872145"}}, "geometry": {"type": "Point", "coordinates": [3.2077962763183714, -43.33077920604493]}}, {"type": "Feature", "properties": {"norad_id": 33973, "name": "COSMOS 2251 DEB", "group": "cosmos-2251-debris", "lat": 29.567587917044623, "lon": 88.76766987380776, "alt_km": 762.8559030856732, "timestamp": "2025-12-25T07:41:10.116558+00:00", "meta": {"OBJECT_NAME": "COSMOS 2251 DEB", "OBJECT_ID": "1993-036FG", "EPOCH": "2025-12-24T17:09:56.410272", "MEAN_MOTION": 14.45403322, "ECCENTRICITY": 0.00473769, "INCLINATION": 74.0086, "RA_OF_ASC_NODE": 80.5336, "ARG_OF_PERICENTER": 256.7581, "MEAN_ANOMALY": 226.9237, "EPHEMERIS_TYPE": 0, "CLASSIFICATION_TYPE": "U", "NORAD_CAT_ID": 33973, "ELEMENT_SET_NO": 999, "REV_AT_EPOCH": 88773, "BSTAR": 0.00014644554, "MEAN_MOTION_DOT": 4.94e-06, "MEAN_MOTION_DDOT": 0}, "tle": {"line1": "1 33973U 93036FG  25358.71523623  .00000494  00000+0  14645-3 0  9997", "line2": "2 33973  74.0086  80.5336 0047376 256.7581 226.9237 14.45403322887730"}}, "geometry": {"type": "Point", "coordinates": [88.76766987380776, 29.567587917044623]}}, {"type": "Feature", "properties": {"norad_id": 33975, "name": "COSMOS 2251 DEB", "group": "cosmos-2251-debris", "lat": 70.94370801461649, "lon": -174.96032047017556, "alt_km": 889.6152655337628, "timestamp": "2025-12-25T07:41:10.116568+00:00", "meta": {"OBJECT_NAME": "COSMOS 2251 DEB", "OBJECT_ID": "1993-036FJ", "EPOCH": "2025-12-24T10:37:31.630080", "MEAN_MOTION": 14.00546977, "ECCENTRICITY": 0.01908754, "INCLINATION": 73.8016, "RA_OF_ASC_NODE": 63.881, "ARG_OF_PERICENTER": 194.9638, "MEAN_ANOMALY": 164.5802, "EPHEMERIS_TYPE": 0, "CLASSIFICATION_TYPE": "U", "NORAD_CAT_ID": 33975, "ELEMENT_SET_NO": 999, "REV_AT_EPOCH": 85993, "BSTAR": 0.00050046433, "MEAN_MOTION_DOT": 8.45e-06, "MEAN_MOTION_DDOT": 0}, "tle": {"line1": "1 33975U 93036FJ  25358.44272720  .00000845  00000+0  50046-3 0  9993", "line2": "2 33975  73.8016  63.8810 0190875 194.9638 164.5802 14.00546977859933"}}, "geometry": {"type": "Point", "coordinates": [-174.96032047017556, 70.94370801461649]}}]}